{
  "norad_id": 52331,
  "name": "STARLINK-3889",
  "history": [
    {
      "epoch": "2026-03-28T18:58:54.350112Z",
      "apogee_km": 540.6623184200271,
      "perigee_km": 538.8293561834562,
      "latitude_deg": -2.0556229798945366e-05,
      "longitude_deg": 12.441136688119267,
      "height_km": 540.5562181527835,
      "semi_major_axis_km": 6917.882837301741,
      "eccentricity": 0.00013248,
      "inclination_deg": 53.217,
      "raan_deg": 123.3739,
      "arg_perigee_deg": 84.6568,
      "mean_anomaly_deg": 275.4575,
      "mean_motion_rev_day": 15.08839199
    },
    {
      "epoch": "2026-03-29T02:55:49.978272Z",
      "apogee_km": 540.6148612797451,
      "perigee_km": 538.8812392861437,
      "latitude_deg": -3.8093571853583105e-06,
      "longitude_deg": -108.60397990443103,
      "height_km": 540.5625143081013,
      "semi_major_axis_km": 6917.885050282944,
      "eccentricity": 0.0001253,
      "inclination_deg": 53.2164,
      "raan_deg": 121.887,
      "arg_perigee_deg": 84.6187,
      "mean_anomaly_deg": 275.4948,
      "mean_motion_rev_day": 15.08838475
    },
    {
      "epoch": "2026-03-30T05:57:23.584032Z",
      "apogee_km": 540.6092584592252,
      "perigee_km": 538.8914086765544,
      "latitude_deg": -4.112462171883218e-06,
      "longitude_deg": -160.1587218433851,
      "height_km": 540.5878860557721,
      "semi_major_axis_km": 6917.88733356789,
      "eccentricity": 0.00012416,
      "inclination_deg": 53.2163,
      "raan_deg": 116.8322,
      "arg_perigee_deg": 86.1144,
      "mean_anomaly_deg": 273.999,
      "mean_motion_rev_day": 15.08837728
    },
    {
      "epoch": "2026-03-30T10:43:32.877120Z",
      "apogee_km": 540.6102117102264,
      "perigee_km": 538.8792193473673,
      "latitude_deg": 7.210302550621201e-05,
      "longitude_deg": 127.21474779733767,
      "height_km": 540.5789320091972,
      "semi_major_axis_km": 6917.881715528797,
      "eccentricity": 0.00012511,
      "inclination_deg": 53.2164,
      "raan_deg": 115.9402,
      "arg_perigee_deg": 85.9234,
      "mean_anomaly_deg": 274.1902,
      "mean_motion_rev_day": 15.08839566
    },
    {
      "epoch": "2026-03-30T18:40:28.710912Z",
      "apogee_km": 540.6232648628884,
      "perigee_km": 538.8758067239469,
      "latitude_deg": 2.8760237811267524e-05,
      "longitude_deg": 6.1688277820288215,
      "height_km": 540.6004082125826,
      "semi_major_axis_km": 6917.886535793417,
      "eccentricity": 0.0001263,
      "inclination_deg": 53.2163,
      "raan_deg": 114.4534,
      "arg_perigee_deg": 87.0577,
      "mean_anomaly_deg": 273.056,
      "mean_motion_rev_day": 15.08837989
    },
    {
      "epoch": "2026-03-31T10:34:20.037216Z",
      "apogee_km": 540.6546851965013,
      "perigee_km": 538.8280885872273,
      "latitude_deg": -1.5157424389315993e-05,
      "longitude_deg": 124.07824555396165,
      "height_km": 540.5892984066313,
      "semi_major_axis_km": 6917.8783868918645,
      "eccentricity": 0.00013202,
      "inclination_deg": 53.2168,
      "raan_deg": 111.4796,
      "arg_perigee_deg": 87.0004,
      "mean_anomaly_deg": 273.1139,
      "mean_motion_rev_day": 15.08840655
    },
    {
      "epoch": "2026-04-01T18:22:02.629344Z",
      "apogee_km": 540.6597928782758,
      "perigee_km": 538.8237878473137,
      "latitude_deg": -1.916424128144518e-06,
      "longitude_deg": -0.10269107804035245,
      "height_km": 540.5960661058128,
      "semi_major_axis_km": 6917.8787903627945,
      "eccentricity": 0.0001327,
      "inclination_deg": 53.217,
      "raan_deg": 105.5319,
      "arg_perigee_deg": 87.4129,
      "mean_anomaly_deg": 272.7015,
      "mean_motion_rev_day": 15.08840523
    },
    {
      "epoch": "2026-04-02T18:12:49.568256Z",
      "apogee_km": 540.6590077922492,
      "perigee_km": 538.8174694037343,
      "latitude_deg": -4.76616531866518e-05,
      "longitude_deg": -3.2382387676595754,
      "height_km": 540.6107605412232,
      "semi_major_axis_km": 6917.8752385979915,
      "eccentricity": 0.0001331,
      "inclination_deg": 53.2168,
      "raan_deg": 101.0713,
      "arg_perigee_deg": 88.5581,
      "mean_anomaly_deg": 271.5563,
      "mean_motion_rev_day": 15.08841685
    },
    {
      "epoch": "2026-04-02T18:12:49.569120Z",
      "apogee_km": 540.658800255992,
      "perigee_km": 538.8176769399915,
      "latitude_deg": -4.4892489074542776e-05,
      "longitude_deg": -3.2382403185405555,
      "height_km": 540.6107657631915,
      "semi_major_axis_km": 6917.8752385979915,
      "eccentricity": 0.00013307,
      "inclination_deg": 53.2168,
      "raan_deg": 101.0713,
      "arg_perigee_deg": 88.5581,
      "mean_anomaly_deg": 271.5563,
      "mean_motion_rev_day": 15.08841685
    },
    {
      "epoch": "2026-04-03T06:55:54.531840Z",
      "apogee_km": 540.669009714914,
      "perigee_km": 538.7956507002937,
      "latitude_deg": -2.2524604330604297e-05,
      "longitude_deg": 163.08958690260724,
      "height_km": 540.634981109618,
      "semi_major_axis_km": 6917.8693302076035,
      "eccentricity": 0.0001354,
      "inclination_deg": 53.2168,
      "raan_deg": 98.6921,
      "arg_perigee_deg": 90.4279,
      "mean_anomaly_deg": 269.6868,
      "mean_motion_rev_day": 15.08843618
    },
    {
      "epoch": "2026-04-04T09:57:27.687456Z",
      "apogee_km": 540.796433662329,
      "perigee_km": 538.653280059074,
      "latitude_deg": -1.0234931679571822e-05,
      "longitude_deg": 111.53403388134124,
      "height_km": 540.7022203494745,
      "semi_major_axis_km": 6917.861856860701,
      "eccentricity": 0.0001549,
      "inclination_deg": 53.2166,
      "raan_deg": 93.6346,
      "arg_perigee_deg": 94.3886,
      "mean_anomaly_deg": 265.7283,
      "mean_motion_rev_day": 15.08846063
    },
    {
      "epoch": "2026-04-05T09:48:16.728480Z",
      "apogee_km": 540.7121942905105,
      "perigee_km": 538.8796338615721,
      "latitude_deg": 8.198702624261299e-06,
      "longitude_deg": 108.39194902318535,
      "height_km": 540.7005134930101,
      "semi_major_axis_km": 6917.932914076041,
      "eccentricity": 0.00013245,
      "inclination_deg": 53.2176,
      "raan_deg": 89.1762,
      "arg_perigee_deg": 90.5522,
      "mean_anomaly_deg": 269.5622,
      "mean_motion_rev_day": 15.08822816
    },
    {
      "epoch": "2026-04-06T04:52:54.707808Z",
      "apogee_km": 540.7413974321744,
      "perigee_km": 538.7866753153367,
      "latitude_deg": 3.910251618431923e-05,
      "longitude_deg": 177.88254979514412,
      "height_km": 540.9141091763839,
      "semi_major_axis_km": 6917.901036373755,
      "eccentricity": 0.00014128,
      "inclination_deg": 53.2177,
      "raan_deg": 85.6085,
      "arg_perigee_deg": 105.0846,
      "mean_anomaly_deg": 255.0303,
      "mean_motion_rev_day": 15.08833245
    },
    {
      "epoch": "2026-04-07T07:54:28.820736Z",
      "apogee_km": 540.7251474274153,
      "perigee_km": 538.860903644133,
      "latitude_deg": 3.851255286462308e-05,
      "longitude_deg": 126.32488498208755,
      "height_km": 540.6877495853334,
      "semi_major_axis_km": 6917.930025535774,
      "eccentricity": 0.00013474,
      "inclination_deg": 53.2172,
      "raan_deg": 80.5529,
      "arg_perigee_deg": 89.9406,
      "mean_anomaly_deg": 270.1741,
      "mean_motion_rev_day": 15.08823761
    },
    {
      "epoch": "2026-04-08T06:09:52.451712Z",
      "apogee_km": 540.6804613091654,
      "perigee_km": 538.8257749684917,
      "latitude_deg": 3.385152246683352e-05,
      "longitude_deg": 147.39827174646337,
      "height_km": 540.6082388561036,
      "semi_major_axis_km": 6917.890118138828,
      "eccentricity": 0.00013405,
      "inclination_deg": 53.2172,
      "raan_deg": 76.3888,
      "arg_perigee_deg": 87.4915,
      "mean_anomaly_deg": 272.6231,
      "mean_motion_rev_day": 15.08836817
    },
    {
      "epoch": "2026-04-09T15:32:57.436800Z",
      "apogee_km": 540.6634074838121,
      "perigee_km": 538.7554654366368,
      "latitude_deg": 5.2999384104087484e-05,
      "longitude_deg": -0.9872510489177806,
      "height_km": 540.5099206900055,
      "semi_major_axis_km": 6917.846436460224,
      "eccentricity": 0.0001379,
      "inclination_deg": 53.2172,
      "raan_deg": 70.1451,
      "arg_perigee_deg": 84.2738,
      "mean_anomaly_deg": 275.8412,
      "mean_motion_rev_day": 15.08851108
    },
    {
      "epoch": "2026-04-10T04:16:01.960608Z",
      "apogee_km": 540.6392142275072,
      "perigee_km": 538.7495394086154,
      "latitude_deg": 3.719873114924624e-05,
      "longitude_deg": 165.34218000485822,
      "height_km": 540.5568275087076,
      "semi_major_axis_km": 6917.8313768180615,
      "eccentricity": 0.00013658,
      "inclination_deg": 53.2171,
      "raan_deg": 67.7657,
      "arg_perigee_deg": 87.9852,
      "mean_anomaly_deg": 272.1297,
      "mean_motion_rev_day": 15.08856035
    },
    {
      "epoch": "2026-04-11T21:36:04.130784Z",
      "apogee_km": 540.6468635752417,
      "perigee_km": 538.8454468016298,
      "latitude_deg": -2.445587234580318e-05,
      "longitude_deg": -104.09723603878852,
      "height_km": 540.656813575496,
      "semi_major_axis_km": 6917.883155188435,
      "eccentricity": 0.0001302,
      "inclination_deg": 53.2167,
      "raan_deg": 60.0329,
      "arg_perigee_deg": 90.9506,
      "mean_anomaly_deg": 269.1635,
      "mean_motion_rev_day": 15.08839095
    },
    {
      "epoch": "2026-04-13T03:48:23.624928Z",
      "apogee_km": 540.7499907991814,
      "perigee_km": 538.7631717626373,
      "latitude_deg": 2.881085325416187e-05,
      "longitude_deg": 155.93248507777068,
      "height_km": 540.6758457259623,
      "semi_major_axis_km": 6917.8935812809095,
      "eccentricity": 0.0001436,
      "inclination_deg": 53.2174,
      "raan_deg": 54.3843,
      "arg_perigee_deg": 91.3653,
      "mean_anomaly_deg": 268.7504,
      "mean_motion_rev_day": 15.08835684
    }
  ]
}